ONEWEB-0189             
1 48217U 21031H   26066.62200340 -.00000205  00000+0 -58719-3 0  9997
2 48217  87.8990 309.9612 0001999  83.2991 276.8366 13.14501702234882
ONEWEB-0196             
1 48218U 21031J   26066.59980322  .00000049  00000+0  97055-4 0  9990
2 48218  87.8993 309.9764 0001772  80.2681 279.8649 13.14502225234884
ONEWEB-0183             
1 48219U 21031K   26066.65054799  .00000140  00000+0  34380-3 0  9991
2 48219  87.8991 309.9662 0001550  73.3156 286.8144 13.14501544234986
ONEWEB-0185             
1 48220U 21031L   26066.60058837  .00000083  00000+0  19019-3 0  9993
2 48220  87.8992 309.9622 0001822  68.9949 291.1375 13.14501054234900
ONEWEB-0187             
1 48221U 21031M   26066.20004709  .00000230  00000+0  58462-3 0  9998
2 48221  87.8980 310.0740 0001877  75.5511 284.5826 13.14502128234866
ONEWEB-0192             
1 48222U 21031N   26066.62675806 -.00000208  00000+0 -59571-3 0  9996
2 48222  87.8979 309.9779 0001708  83.0447 277.0877 13.14501865234836
ONEWEB-0219             
1 48223U 21031P   26066.60614455 -.00000030  00000+0 -11610-3 0  9993
2 48223  87.8991 309.9671 0001818  73.9855 286.1475 13.14502396235033
ONEWEB-0202             
1 48224U 21031Q   26066.20652865  .00000246  00000+0  62993-3 0  9994
2 48224  87.8987 310.0559 0002206  94.5201 265.6180 13.14505074234965
ONEWEB-0204             
1 48225U 21031R   26066.62120664 -.00000194  00000+0 -55744-3 0  9998
2 48225  87.8991 309.9669 0001543  68.9326 291.1968 13.14503021234919
ONEWEB-0205             
1 48226U 21031S   26066.59663321  .00000051  00000+0  10432-3 0  9992
2 48226  87.8992 309.9640 0001742  75.3767 284.7556 13.14501949234921
ONEWEB-0206             
1 48227U 21031T   26066.64579270  .00000058  00000+0  12097-3 0  9994
2 48227  87.8999 309.9535 0001474  88.7792 271.3506 13.14502908234888
ONEWEB-0182             
1 48228U 21031U   26066.64103287 -.00000015  00000+0 -75249-4 0  9990
2 48228  87.8990 309.9677 0001511  72.1581 287.9714 13.14501694235091
ONEWEB-0186             
1 48229U 21031V   26066.65213837  .00000179  00000+0  44918-3 0  9992
2 48229  87.8995 309.9525 0001679  79.6845 280.4474 13.14502181235047
ONEWEB-0181             
1 48230U 21031W   26066.62993115 -.00000159  00000+0 -46265-3 0  9992
2 48230  87.8981 309.9987 0001846  81.6421 278.4918 13.14501860234890
ONEWEB-0188             
1 48231U 21031X   26066.59187595  .00000204  00000+0  51604-3 0  9998
2 48231  87.8982 310.0046 0001607  79.2999 280.8311 13.14501852234793
ONEWEB-0220             
1 48232U 21031Y   26066.63151706 -.00000158  00000+0 -46151-3 0  9990
2 48232  87.8993 309.9558 0001777  74.9683 285.1643 13.14501633235065
