[{"OBJECT_NAME":"ONEWEB-0189","OBJECT_ID":"2021-031H","EPOCH":"2026-03-07T14:55:41.093760","MEAN_MOTION":13.14501702,"ECCENTRICITY":0.00019998,"INCLINATION":87.899,"RA_OF_ASC_NODE":309.9612,"ARG_OF_PERICENTER":83.2991,"MEAN_ANOMALY":276.8366,"EPHEMERIS_TYPE":0,"CLASSIFICATION_TYPE":"U","NORAD_CAT_ID":48217,"ELEMENT_SET_NO":999,"REV_AT_EPOCH":23488,"BSTAR":-0.00058719064,"MEAN_MOTION_DOT":-2.05e-6,"MEAN_MOTION_DDOT":0},{"OBJECT_NAME":"ONEWEB-0196","OBJECT_ID":"2021-031J","EPOCH":"2026-03-07T14:23:42.998208","MEAN_MOTION":13.14502225,"ECCENTRICITY":0.00017727,"INCLINATION":87.8993,"RA_OF_ASC_NODE":309.9764,"ARG_OF_PERICENTER":80.2681,"MEAN_ANOMALY":279.8649,"EPHEMERIS_TYPE":0,"CLASSIFICATION_TYPE":"U","NORAD_CAT_ID":48218,"ELEMENT_SET_NO":999,"REV_AT_EPOCH":23488,"BSTAR":9.7055244e-5,"MEAN_MOTION_DOT":4.9e-7,"MEAN_MOTION_DDOT":0},{"OBJECT_NAME":"ONEWEB-0183","OBJECT_ID":"2021-031K","EPOCH":"2026-03-07T15:36:47.346336","MEAN_MOTION":13.14501544,"ECCENTRICITY":0.00015508,"INCLINATION":87.8991,"RA_OF_ASC_NODE":309.9662,"ARG_OF_PERICENTER":73.3156,"MEAN_ANOMALY":286.8144,"EPHEMERIS_TYPE":0,"CLASSIFICATION_TYPE":"U","NORAD_CAT_ID":48219,"ELEMENT_SET_NO":999,"REV_AT_EPOCH":23498,"BSTAR":0.00034379508,"MEAN_MOTION_DOT":1.4e-6,"MEAN_MOTION_DDOT":0},{"OBJECT_NAME":"ONEWEB-0185","OBJECT_ID":"2021-031L","EPOCH":"2026-03-07T14:24:50.835168","MEAN_MOTION":13.14501054,"ECCENTRICITY":0.00018223,"INCLINATION":87.8992,"RA_OF_ASC_NODE":309.9622,"ARG_OF_PERICENTER":68.9949,"MEAN_ANOMALY":291.1375,"EPHEMERIS_TYPE":0,"CLASSIFICATION_TYPE":"U","NORAD_CAT_ID":48220,"ELEMENT_SET_NO":999,"REV_AT_EPOCH":23490,"BSTAR":0.00019018665,"MEAN_MOTION_DOT":8.3e-7,"MEAN_MOTION_DDOT":0},{"OBJECT_NAME":"ONEWEB-0187","OBJECT_ID":"2021-031M","EPOCH":"2026-03-07T04:48:04.068576","MEAN_MOTION":13.14502128,"ECCENTRICITY":0.0001877,"INCLINATION":87.898,"RA_OF_ASC_NODE":310.074,"ARG_OF_PERICENTER":75.5511,"MEAN_ANOMALY":284.5826,"EPHEMERIS_TYPE":0,"CLASSIFICATION_TYPE":"U","NORAD_CAT_ID":48221,"ELEMENT_SET_NO":999,"REV_AT_EPOCH":23486,"BSTAR":0.00058462,"MEAN_MOTION_DOT":2.3e-6,"MEAN_MOTION_DDOT":0},{"OBJECT_NAME":"ONEWEB-0192","OBJECT_ID":"2021-031N","EPOCH":"2026-03-07T15:02:31.896384","MEAN_MOTION":13.14501865,"ECCENTRICITY":0.00017087,"INCLINATION":87.8979,"RA_OF_ASC_NODE":309.9779,"ARG_OF_PERICENTER":83.0447,"MEAN_ANOMALY":277.0877,"EPHEMERIS_TYPE":0,"CLASSIFICATION_TYPE":"U","NORAD_CAT_ID":48222,"ELEMENT_SET_NO":999,"REV_AT_EPOCH":23483,"BSTAR":-0.0005957069,"MEAN_MOTION_DOT":-2.08e-6,"MEAN_MOTION_DDOT":0},{"OBJECT_NAME":"ONEWEB-0219","OBJECT_ID":"2021-031P","EPOCH":"2026-03-07T14:32:50.889120","MEAN_MOTION":13.14502396,"ECCENTRICITY":0.00018187,"INCLINATION":87.8991,"RA_OF_ASC_NODE":309.9671,"ARG_OF_PERICENTER":73.9855,"MEAN_ANOMALY":286.1475,"EPHEMERIS_TYPE":0,"CLASSIFICATION_TYPE":"U","NORAD_CAT_ID":48223,"ELEMENT_SET_NO":999,"REV_AT_EPOCH":23503,"BSTAR":-0.00011610122,"MEAN_MOTION_DOT":-3.0e-7,"MEAN_MOTION_DDOT":0},{"OBJECT_NAME":"ONEWEB-0202","OBJECT_ID":"2021-031Q","EPOCH":"2026-03-07T04:57:24.075360","MEAN_MOTION":13.14505074,"ECCENTRICITY":0.0002206,"INCLINATION":87.8987,"RA_OF_ASC_NODE":310.0559,"ARG_OF_PERICENTER":94.5201,"MEAN_ANOMALY":265.618,"EPHEMERIS_TYPE":0,"CLASSIFICATION_TYPE":"U","NORAD_CAT_ID":48224,"ELEMENT_SET_NO":999,"REV_AT_EPOCH":23496,"BSTAR":0.00062993,"MEAN_MOTION_DOT":2.46e-6,"MEAN_MOTION_DDOT":0},{"OBJECT_NAME":"ONEWEB-0204","OBJECT_ID":"2021-031R","EPOCH":"2026-03-07T14:54:32.253696","MEAN_MOTION":13.14503021,"ECCENTRICITY":0.00015432,"INCLINATION":87.8991,"RA_OF_ASC_NODE":309.9669,"ARG_OF_PERICENTER":68.9326,"MEAN_ANOMALY":291.1968,"EPHEMERIS_TYPE":0,"CLASSIFICATION_TYPE":"U","NORAD_CAT_ID":48225,"ELEMENT_SET_NO":999,"REV_AT_EPOCH":23491,"BSTAR":-0.0005574438,"MEAN_MOTION_DOT":-1.94e-6,"MEAN_MOTION_DDOT":0},{"OBJECT_NAME":"ONEWEB-0205","OBJECT_ID":"2021-031S","EPOCH":"2026-03-07T14:19:09.109344","MEAN_MOTION":13.14501949,"ECCENTRICITY":0.00017429,"INCLINATION":87.8992,"RA_OF_ASC_NODE":309.964,"ARG_OF_PERICENTER":75.3767,"MEAN_ANOMALY":284.7556,"EPHEMERIS_TYPE":0,"CLASSIFICATION_TYPE":"U","NORAD_CAT_ID":48226,"ELEMENT_SET_NO":999,"REV_AT_EPOCH":23492,"BSTAR":0.00010431729,"MEAN_MOTION_DOT":5.1e-7,"MEAN_MOTION_DDOT":0},{"OBJECT_NAME":"ONEWEB-0206","OBJECT_ID":"2021-031T","EPOCH":"2026-03-07T15:29:56.489280","MEAN_MOTION":13.14502908,"ECCENTRICITY":0.00014741,"INCLINATION":87.8999,"RA_OF_ASC_NODE":309.9535,"ARG_OF_PERICENTER":88.7792,"MEAN_ANOMALY":271.3506,"EPHEMERIS_TYPE":0,"CLASSIFICATION_TYPE":"U","NORAD_CAT_ID":48227,"ELEMENT_SET_NO":999,"REV_AT_EPOCH":23488,"BSTAR":0.00012096903,"MEAN_MOTION_DOT":5.8e-7,"MEAN_MOTION_DDOT":0},{"OBJECT_NAME":"ONEWEB-0182","OBJECT_ID":"2021-031U","EPOCH":"2026-03-07T15:23:05.239968","MEAN_MOTION":13.14501694,"ECCENTRICITY":0.00015118,"INCLINATION":87.899,"RA_OF_ASC_NODE":309.9677,"ARG_OF_PERICENTER":72.1581,"MEAN_ANOMALY":287.9714,"EPHEMERIS_TYPE":0,"CLASSIFICATION_TYPE":"U","NORAD_CAT_ID":48228,"ELEMENT_SET_NO":999,"REV_AT_EPOCH":23509,"BSTAR":-7.5249028e-5,"MEAN_MOTION_DOT":-1.5e-7,"MEAN_MOTION_DDOT":0},{"OBJECT_NAME":"ONEWEB-0186","OBJECT_ID":"2021-031V","EPOCH":"2026-03-07T15:39:04.755168","MEAN_MOTION":13.14502181,"ECCENTRICITY":0.00016793,"INCLINATION":87.8995,"RA_OF_ASC_NODE":309.9525,"ARG_OF_PERICENTER":79.6845,"MEAN_ANOMALY":280.4474,"EPHEMERIS_TYPE":0,"CLASSIFICATION_TYPE":"U","NORAD_CAT_ID":48229,"ELEMENT_SET_NO":999,"REV_AT_EPOCH":23504,"BSTAR":0.00044918099,"MEAN_MOTION_DOT":1.79e-6,"MEAN_MOTION_DDOT":0},{"OBJECT_NAME":"ONEWEB-0181","OBJECT_ID":"2021-031W","EPOCH":"2026-03-07T15:07:06.051360","MEAN_MOTION":13.1450186,"ECCENTRICITY":0.00018468,"INCLINATION":87.8981,"RA_OF_ASC_NODE":309.9987,"ARG_OF_PERICENTER":81.6421,"MEAN_ANOMALY":278.4918,"EPHEMERIS_TYPE":0,"CLASSIFICATION_TYPE":"U","NORAD_CAT_ID":48230,"ELEMENT_SET_NO":999,"REV_AT_EPOCH":23489,"BSTAR":-0.00046264667,"MEAN_MOTION_DOT":-1.59e-6,"MEAN_MOTION_DDOT":0},{"OBJECT_NAME":"ONEWEB-0188","OBJECT_ID":"2021-031X","EPOCH":"2026-03-07T14:12:18.082080","MEAN_MOTION":13.14501852,"ECCENTRICITY":0.0001607,"INCLINATION":87.8982,"RA_OF_ASC_NODE":310.0046,"ARG_OF_PERICENTER":79.2999,"MEAN_ANOMALY":280.8311,"EPHEMERIS_TYPE":0,"CLASSIFICATION_TYPE":"U","NORAD_CAT_ID":48231,"ELEMENT_SET_NO":999,"REV_AT_EPOCH":23479,"BSTAR":0.0005160368,"MEAN_MOTION_DOT":2.04e-6,"MEAN_MOTION_DDOT":0},{"OBJECT_NAME":"ONEWEB-0220","OBJECT_ID":"2021-031Y","EPOCH":"2026-03-07T15:09:23.073984","MEAN_MOTION":13.14501633,"ECCENTRICITY":0.00017776,"INCLINATION":87.8993,"RA_OF_ASC_NODE":309.9558,"ARG_OF_PERICENTER":74.9683,"MEAN_ANOMALY":285.1643,"EPHEMERIS_TYPE":0,"CLASSIFICATION_TYPE":"U","NORAD_CAT_ID":48232,"ELEMENT_SET_NO":999,"REV_AT_EPOCH":23506,"BSTAR":-0.00046151069,"MEAN_MOTION_DOT":-1.58e-6,"MEAN_MOTION_DDOT":0}]
